[{"OBJECT_NAME":"ONEWEB-0406","OBJECT_ID":"2021-132T","EPOCH":"2026-03-09T17:23:05.821152","MEAN_MOTION":13.1868618,"ECCENTRICITY":0.00016851,"INCLINATION":87.9246,"RA_OF_ASC_NODE":355.2158,"ARG_OF_PERICENTER":62.3288,"MEAN_ANOMALY":297.8015,"EPHEMERIS_TYPE":0,"CLASSIFICATION_TYPE":"U","NORAD_CAT_ID":50486,"ELEMENT_SET_NO":999,"REV_AT_EPOCH":20851,"BSTAR":-0.00027701019,"MEAN_MOTION_DOT":-9.6e-7,"MEAN_MOTION_DDOT":0},{"OBJECT_NAME":"COSMOS 770","OBJECT_ID":"1975-089A","EPOCH":"2026-03-09T23:14:15.970560","MEAN_MOTION":13.19804498,"ECCENTRICITY":0.00283758,"INCLINATION":82.9533,"RA_OF_ASC_NODE":75.5278,"ARG_OF_PERICENTER":350.4032,"MEAN_ANOMALY":70.2298,"EPHEMERIS_TYPE":0,"CLASSIFICATION_TYPE":"U","NORAD_CAT_ID":8325,"ELEMENT_SET_NO":999,"REV_AT_EPOCH":43030,"BSTAR":3.5508058e-5,"MEAN_MOTION_DOT":2.7e-7,"MEAN_MOTION_DDOT":0}]
